<?xml version="1.0" encoding="UTF-8"?>
<gpx version="1.1" xmlns="http://www.topografix.com/GPX/1/1" xmlns:xsi="http://www.w3.org/2001/XMLSchema-instance" xsi:schemaLocation="http://www.topografix.com/GPX/1/1 http://www.topografix.com/GPX/1/1/gpx.xsd">
  <trk>
    <trkseg>
      <trkpt lat="47.387283" lon="8.527580">
        <ele>454.073</ele>
        <time>2026-08-14T08:38:08Z</time>
      </trkpt>
      <trkpt lat="47.387038" lon="8.528441">
        <ele>455.085</ele>
        <time>2026-08-14T08:38:55Z</time>
      </trkpt>
      <trkpt lat="47.387627" lon="8.529607">
        <ele>454.013</ele>
        <time>2026-08-14T08:39:41Z</time>
      </trkpt>
      <trkpt lat="47.386111" lon="8.532405">
        <ele>455.009</ele>
        <time>2026-08-14T08:40:29Z</time>
      </trkpt>
      <trkpt lat="47.386736" lon="8.533279">
        <ele>457.059</ele>
        <time>2026-08-14T08:40:50Z</time>
      </trkpt>
      <trkpt lat="47.386942" lon="8.533983">
        <ele>458.064</ele>
        <time>2026-08-14T08:41:04Z</time>
      </trkpt>
      <trkpt lat="47.385676" lon="8.535722">
        <ele>463.016</ele>
        <time>2026-08-14T08:41:46Z</time>
      </trkpt>
      <trkpt lat="47.386092" lon="8.535153">
        <ele>466.054</ele>
        <time>2026-08-14T08:42:02Z</time>
      </trkpt>
      <trkpt lat="47.386382" lon="8.535205">
        <ele>468.061</ele>
        <time>2026-08-14T08:42:11Z</time>
      </trkpt>
      <trkpt lat="47.386712" lon="8.534811">
        <ele>466.084</ele>
        <time>2026-08-14T08:42:20Z</time>
      </trkpt>
      <trkpt lat="47.388088" lon="8.536311">
        <ele>474.041</ele>
        <time>2026-08-14T08:43:02Z</time>
      </trkpt>
      <trkpt lat="47.388487" lon="8.536422">
        <ele>476.022</ele>
        <time>2026-08-14T08:43:12Z</time>
      </trkpt>
      <trkpt lat="47.389736" lon="8.536375">
        <ele>482.049</ele>
        <time>2026-08-14T08:43:45Z</time>
      </trkpt>
      <trkpt lat="47.388891" lon="8.537677">
        <ele>483.089</ele>
        <time>2026-08-14T08:44:12Z</time>
      </trkpt>
      <trkpt lat="47.389391" lon="8.538983">
        <ele>491.006</ele>
        <time>2026-08-14T08:44:44Z</time>
      </trkpt>
      <trkpt lat="47.389596" lon="8.539987">
        <ele>497.026</ele>
        <time>2026-08-14T08:45:13Z</time>
      </trkpt>
      <trkpt lat="47.388445" lon="8.540597">
        <ele>498.009</ele>
        <time>2026-08-14T08:45:37Z</time>
      </trkpt>
      <trkpt lat="47.388354" lon="8.540762">
        <ele>498.090</ele>
        <time>2026-08-14T08:45:41Z</time>
      </trkpt>
      <trkpt lat="47.390216" lon="8.542602">
        <ele>507.035</ele>
        <time>2026-08-14T08:46:40Z</time>
      </trkpt>
      <trkpt lat="47.390456" lon="8.542663">
        <ele>509.037</ele>
        <time>2026-08-14T08:46:47Z</time>
      </trkpt>
      <trkpt lat="47.391897" lon="8.540861">
        <ele>511.095</ele>
        <time>2026-08-14T08:47:26Z</time>
      </trkpt>
      <trkpt lat="47.392516" lon="8.540515">
        <ele>512.032</ele>
        <time>2026-08-14T08:47:37Z</time>
      </trkpt>
      <trkpt lat="47.393862" lon="8.540453">
        <ele>516.085</ele>
        <time>2026-08-14T08:48:04Z</time>
      </trkpt>
      <trkpt lat="47.394349" lon="8.540691">
        <ele>517.032</ele>
        <time>2026-08-14T08:48:14Z</time>
      </trkpt>
      <trkpt lat="47.394578" lon="8.540992">
        <ele>518.033</ele>
        <time>2026-08-14T08:48:22Z</time>
      </trkpt>
      <trkpt lat="47.394037" lon="8.541899">
        <ele>519.010</ele>
        <time>2026-08-14T08:48:43Z</time>
      </trkpt>
      <trkpt lat="47.393966" lon="8.544593">
        <ele>525.075</ele>
        <time>2026-08-14T08:49:20Z</time>
      </trkpt>
      <trkpt lat="47.393789" lon="8.544795">
        <ele>527.028</ele>
        <time>2026-08-14T08:49:36Z</time>
      </trkpt>
      <trkpt lat="47.393969" lon="8.545044">
        <ele>527.020</ele>
        <time>2026-08-14T08:49:44Z</time>
      </trkpt>
      <trkpt lat="47.395781" lon="8.545444">
        <ele>526.009</ele>
        <time>2026-08-14T08:50:14Z</time>
      </trkpt>
      <trkpt lat="47.395881" lon="8.545727">
        <ele>526.059</ele>
        <time>2026-08-14T08:50:20Z</time>
      </trkpt>
      <trkpt lat="47.395589" lon="8.546156">
        <ele>528.074</ele>
        <time>2026-08-14T08:50:30Z</time>
      </trkpt>
      <trkpt lat="47.393587" lon="8.547446">
        <ele>543.076</ele>
        <time>2026-08-14T08:51:33Z</time>
      </trkpt>
      <trkpt lat="47.392398" lon="8.548981">
        <ele>552.034</ele>
        <time>2026-08-14T08:52:19Z</time>
      </trkpt>
      <trkpt lat="47.392615" lon="8.550557">
        <ele>559.081</ele>
        <time>2026-08-14T08:52:54Z</time>
      </trkpt>
      <trkpt lat="47.393723" lon="8.551263">
        <ele>558.054</ele>
        <time>2026-08-14T08:53:14Z</time>
      </trkpt>
      <trkpt lat="47.396555" lon="8.552514">
        <ele>547.071</ele>
        <time>2026-08-14T08:53:52Z</time>
      </trkpt>
      <trkpt lat="47.397658" lon="8.552664">
        <ele>543.012</ele>
        <time>2026-08-14T08:54:08Z</time>
      </trkpt>
      <trkpt lat="47.399190" lon="8.553272">
        <ele>530.049</ele>
        <time>2026-08-14T08:54:29Z</time>
      </trkpt>
      <trkpt lat="47.401951" lon="8.555931">
        <ele>511.057</ele>
        <time>2026-08-14T08:55:05Z</time>
      </trkpt>
      <trkpt lat="47.402693" lon="8.556890">
        <ele>506.000</ele>
        <time>2026-08-14T08:55:16Z</time>
      </trkpt>
      <trkpt lat="47.403208" lon="8.559241">
        <ele>500.020</ele>
        <time>2026-08-14T08:55:38Z</time>
      </trkpt>
      <trkpt lat="47.403717" lon="8.560211">
        <ele>500.009</ele>
        <time>2026-08-14T08:55:51Z</time>
      </trkpt>
      <trkpt lat="47.404144" lon="8.562105">
        <ele>493.097</ele>
        <time>2026-08-14T08:56:28Z</time>
      </trkpt>
      <trkpt lat="47.403691" lon="8.566027">
        <ele>485.082</ele>
        <time>2026-08-14T08:56:59Z</time>
      </trkpt>
      <trkpt lat="47.403896" lon="8.569265">
        <ele>482.034</ele>
        <time>2026-08-14T08:57:28Z</time>
      </trkpt>
      <trkpt lat="47.403673" lon="8.571494">
        <ele>480.062</ele>
        <time>2026-08-14T08:58:05Z</time>
      </trkpt>
      <trkpt lat="47.404266" lon="8.573321">
        <ele>477.069</ele>
        <time>2026-08-14T08:58:22Z</time>
      </trkpt>
      <trkpt lat="47.404126" lon="8.574032">
        <ele>476.092</ele>
        <time>2026-08-14T08:58:28Z</time>
      </trkpt>
      <trkpt lat="47.402986" lon="8.576731">
        <ele>475.089</ele>
        <time>2026-08-14T08:59:23Z</time>
      </trkpt>
      <trkpt lat="47.400367" lon="8.585712">
        <ele>477.080</ele>
        <time>2026-08-14T09:00:51Z</time>
      </trkpt>
      <trkpt lat="47.399478" lon="8.585927">
        <ele>481.067</ele>
        <time>2026-08-14T09:01:13Z</time>
      </trkpt>
      <trkpt lat="47.398432" lon="8.585493">
        <ele>489.044</ele>
        <time>2026-08-14T09:01:50Z</time>
      </trkpt>
      <trkpt lat="47.397003" lon="8.587570">
        <ele>490.005</ele>
        <time>2026-08-14T09:02:26Z</time>
      </trkpt>
      <trkpt lat="47.396389" lon="8.587854">
        <ele>493.015</ele>
        <time>2026-08-14T09:02:42Z</time>
      </trkpt>
      <trkpt lat="47.395563" lon="8.588487">
        <ele>499.009</ele>
        <time>2026-08-14T09:03:08Z</time>
      </trkpt>
      <trkpt lat="47.394912" lon="8.589342">
        <ele>502.046</ele>
        <time>2026-08-14T09:03:27Z</time>
      </trkpt>
      <trkpt lat="47.394621" lon="8.591947">
        <ele>498.081</ele>
        <time>2026-08-14T09:03:55Z</time>
      </trkpt>
      <trkpt lat="47.393777" lon="8.593761">
        <ele>489.053</ele>
        <time>2026-08-14T09:04:21Z</time>
      </trkpt>
      <trkpt lat="47.393896" lon="8.596120">
        <ele>485.061</ele>
        <time>2026-08-14T09:04:44Z</time>
      </trkpt>
      <trkpt lat="47.393754" lon="8.597074">
        <ele>484.068</ele>
        <time>2026-08-14T09:04:54Z</time>
      </trkpt>
      <trkpt lat="47.392077" lon="8.600602">
        <ele>480.031</ele>
        <time>2026-08-14T09:05:38Z</time>
      </trkpt>
      <trkpt lat="47.391401" lon="8.603847">
        <ele>477.038</ele>
        <time>2026-08-14T09:06:22Z</time>
      </trkpt>
      <trkpt lat="47.390799" lon="8.608049">
        <ele>478.019</ele>
        <time>2026-08-14T09:06:59Z</time>
      </trkpt>
      <trkpt lat="47.391080" lon="8.608722">
        <ele>478.036</ele>
        <time>2026-08-14T09:07:09Z</time>
      </trkpt>
      <trkpt lat="47.390279" lon="8.610170">
        <ele>478.068</ele>
        <time>2026-08-14T09:07:27Z</time>
      </trkpt>
      <trkpt lat="47.389712" lon="8.610776">
        <ele>478.042</ele>
        <time>2026-08-14T09:07:37Z</time>
      </trkpt>
      <trkpt lat="47.387462" lon="8.614356">
        <ele>482.026</ele>
        <time>2026-08-14T09:08:27Z</time>
      </trkpt>
      <trkpt lat="47.388062" lon="8.615385">
        <ele>481.009</ele>
        <time>2026-08-14T09:08:41Z</time>
      </trkpt>
      <trkpt lat="47.389762" lon="8.617245">
        <ele>478.068</ele>
        <time>2026-08-14T09:09:09Z</time>
      </trkpt>
      <trkpt lat="47.389678" lon="8.617687">
        <ele>479.013</ele>
        <time>2026-08-14T09:09:14Z</time>
      </trkpt>
      <trkpt lat="47.387589" lon="8.620751">
        <ele>480.015</ele>
        <time>2026-08-14T09:09:57Z</time>
      </trkpt>
      <trkpt lat="47.387719" lon="8.621218">
        <ele>480.063</ele>
        <time>2026-08-14T09:10:03Z</time>
      </trkpt>
      <trkpt lat="47.388097" lon="8.621549">
        <ele>481.070</ele>
        <time>2026-08-14T09:10:10Z</time>
      </trkpt>
      <trkpt lat="47.389243" lon="8.621602">
        <ele>483.023</ele>
        <time>2026-08-14T09:10:29Z</time>
      </trkpt>
      <trkpt lat="47.388883" lon="8.622680">
        <ele>483.070</ele>
        <time>2026-08-14T09:10:43Z</time>
      </trkpt>
      <trkpt lat="47.388171" lon="8.623860">
        <ele>482.041</ele>
        <time>2026-08-14T09:10:58Z</time>
      </trkpt>
      <trkpt lat="47.385012" lon="8.626623">
        <ele>479.018</ele>
        <time>2026-08-14T09:11:43Z</time>
      </trkpt>
      <trkpt lat="47.383559" lon="8.630102">
        <ele>475.056</ele>
        <time>2026-08-14T09:12:16Z</time>
      </trkpt>
      <trkpt lat="47.382219" lon="8.631815">
        <ele>474.059</ele>
        <time>2026-08-14T09:12:39Z</time>
      </trkpt>
      <trkpt lat="47.381994" lon="8.631824">
        <ele>474.014</ele>
        <time>2026-08-14T09:12:43Z</time>
      </trkpt>
      <trkpt lat="47.380868" lon="8.630693">
        <ele>476.009</ele>
        <time>2026-08-14T09:13:03Z</time>
      </trkpt>
      <trkpt lat="47.379541" lon="8.629074">
        <ele>478.047</ele>
        <time>2026-08-14T09:13:31Z</time>
      </trkpt>
      <trkpt lat="47.378021" lon="8.631974">
        <ele>474.032</ele>
        <time>2026-08-14T09:14:02Z</time>
      </trkpt>
      <trkpt lat="47.376392" lon="8.635904">
        <ele>476.094</ele>
        <time>2026-08-14T09:14:46Z</time>
      </trkpt>
      <trkpt lat="47.375861" lon="8.635534">
        <ele>479.072</ele>
        <time>2026-08-14T09:14:58Z</time>
      </trkpt>
      <trkpt lat="47.375008" lon="8.634512">
        <ele>481.019</ele>
        <time>2026-08-14T09:15:19Z</time>
      </trkpt>
      <trkpt lat="47.374558" lon="8.633867">
        <ele>486.062</ele>
        <time>2026-08-14T09:15:39Z</time>
      </trkpt>
      <trkpt lat="47.374541" lon="8.633421">
        <ele>489.049</ele>
        <time>2026-08-14T09:15:52Z</time>
      </trkpt>
      <trkpt lat="47.374427" lon="8.633360">
        <ele>490.010</ele>
        <time>2026-08-14T09:15:55Z</time>
      </trkpt>
      <trkpt lat="47.372992" lon="8.635045">
        <ele>488.017</ele>
        <time>2026-08-14T09:16:23Z</time>
      </trkpt>
      <trkpt lat="47.371671" lon="8.636983">
        <ele>489.035</ele>
        <time>2026-08-14T09:16:48Z</time>
      </trkpt>
      <trkpt lat="47.370656" lon="8.638819">
        <ele>489.086</ele>
        <time>2026-08-14T09:17:28Z</time>
      </trkpt>
      <trkpt lat="47.372664" lon="8.641096">
        <ele>484.014</ele>
        <time>2026-08-14T09:18:01Z</time>
      </trkpt>
      <trkpt lat="47.373577" lon="8.641778">
        <ele>482.009</ele>
        <time>2026-08-14T09:18:14Z</time>
      </trkpt>
      <trkpt lat="47.374346" lon="8.642597">
        <ele>481.085</ele>
        <time>2026-08-14T09:18:25Z</time>
      </trkpt>
      <trkpt lat="47.376016" lon="8.644621">
        <ele>478.080</ele>
        <time>2026-08-14T09:18:49Z</time>
      </trkpt>
      <trkpt lat="47.378767" lon="8.646683">
        <ele>475.022</ele>
        <time>2026-08-14T09:19:24Z</time>
      </trkpt>
      <trkpt lat="47.379425" lon="8.647700">
        <ele>475.010</ele>
        <time>2026-08-14T09:19:35Z</time>
      </trkpt>
      <trkpt lat="47.379655" lon="8.648704">
        <ele>475.017</ele>
        <time>2026-08-14T09:19:44Z</time>
      </trkpt>
      <trkpt lat="47.379825" lon="8.652265">
        <ele>479.010</ele>
        <time>2026-08-14T09:20:18Z</time>
      </trkpt>
      <trkpt lat="47.378894" lon="8.655226">
        <ele>482.067</ele>
        <time>2026-08-14T09:20:51Z</time>
      </trkpt>
      <trkpt lat="47.378371" lon="8.657578">
        <ele>484.078</ele>
        <time>2026-08-14T09:21:16Z</time>
      </trkpt>
      <trkpt lat="47.376230" lon="8.662500">
        <ele>482.065</ele>
        <time>2026-08-14T09:22:06Z</time>
      </trkpt>
      <trkpt lat="47.375705" lon="8.664957">
        <ele>480.063</ele>
        <time>2026-08-14T09:22:27Z</time>
      </trkpt>
      <trkpt lat="47.373790" lon="8.668700">
        <ele>476.044</ele>
        <time>2026-08-14T09:23:04Z</time>
      </trkpt>
      <trkpt lat="47.373492" lon="8.668940">
        <ele>476.018</ele>
        <time>2026-08-14T09:23:08Z</time>
      </trkpt>
      <trkpt lat="47.372603" lon="8.669106">
        <ele>475.009</ele>
        <time>2026-08-14T09:23:18Z</time>
      </trkpt>
      <trkpt lat="47.367859" lon="8.671876">
        <ele>476.048</ele>
        <time>2026-08-14T09:24:23Z</time>
      </trkpt>
      <trkpt lat="47.366840" lon="8.673635">
        <ele>473.063</ele>
        <time>2026-08-14T09:24:42Z</time>
      </trkpt>
      <trkpt lat="47.366571" lon="8.673991">
        <ele>474.095</ele>
        <time>2026-08-14T09:24:47Z</time>
      </trkpt>
      <trkpt lat="47.366173" lon="8.674168">
        <ele>474.093</ele>
        <time>2026-08-14T09:24:53Z</time>
      </trkpt>
      <trkpt lat="47.365730" lon="8.674940">
        <ele>475.050</ele>
        <time>2026-08-14T09:25:04Z</time>
      </trkpt>
      <trkpt lat="47.365487" lon="8.677224">
        <ele>476.053</ele>
        <time>2026-08-14T09:25:32Z</time>
      </trkpt>
      <trkpt lat="47.365010" lon="8.677710">
        <ele>475.050</ele>
        <time>2026-08-14T09:25:40Z</time>
      </trkpt>
      <trkpt lat="47.362481" lon="8.681491">
        <ele>475.061</ele>
        <time>2026-08-14T09:26:30Z</time>
      </trkpt>
      <trkpt lat="47.360052" lon="8.684571">
        <ele>474.078</ele>
        <time>2026-08-14T09:27:07Z</time>
      </trkpt>
      <trkpt lat="47.358882" lon="8.685559">
        <ele>473.017</ele>
        <time>2026-08-14T09:27:23Z</time>
      </trkpt>
      <trkpt lat="47.355321" lon="8.687990">
        <ele>478.087</ele>
        <time>2026-08-14T09:28:14Z</time>
      </trkpt>
      <trkpt lat="47.352258" lon="8.690633">
        <ele>478.015</ele>
        <time>2026-08-14T09:29:01Z</time>
      </trkpt>
      <trkpt lat="47.351570" lon="8.691601">
        <ele>476.009</ele>
        <time>2026-08-14T09:29:13Z</time>
      </trkpt>
      <trkpt lat="47.350211" lon="8.690427">
        <ele>473.093</ele>
        <time>2026-08-14T09:29:39Z</time>
      </trkpt>
      <trkpt lat="47.350187" lon="8.690164">
        <ele>472.088</ele>
        <time>2026-08-14T09:29:46Z</time>
      </trkpt>
      <trkpt lat="47.350134" lon="8.690322">
        <ele>472.040</ele>
        <time>2026-08-14T09:31:08Z</time>
      </trkpt>
      <trkpt lat="47.349787" lon="8.690217">
        <ele>472.068</ele>
        <time>2026-08-14T09:31:17Z</time>
      </trkpt>
      <trkpt lat="47.348691" lon="8.690668">
        <ele>472.095</ele>
        <time>2026-08-14T09:31:34Z</time>
      </trkpt>
      <trkpt lat="47.345149" lon="8.690338">
        <ele>471.078</ele>
        <time>2026-08-14T09:32:18Z</time>
      </trkpt>
      <trkpt lat="47.343412" lon="8.690834">
        <ele>471.085</ele>
        <time>2026-08-14T09:32:42Z</time>
      </trkpt>
      <trkpt lat="47.343311" lon="8.691119">
        <ele>472.026</ele>
        <time>2026-08-14T09:32:49Z</time>
      </trkpt>
      <trkpt lat="47.341230" lon="8.692238">
        <ele>472.013</ele>
        <time>2026-08-14T09:33:32Z</time>
      </trkpt>
      <trkpt lat="47.340126" lon="8.693417">
        <ele>472.013</ele>
        <time>2026-08-14T09:33:50Z</time>
      </trkpt>
      <trkpt lat="47.339705" lon="8.693354">
        <ele>472.043</ele>
        <time>2026-08-14T09:33:56Z</time>
      </trkpt>
      <trkpt lat="47.337816" lon="8.696179">
        <ele>471.007</ele>
        <time>2026-08-14T09:34:33Z</time>
      </trkpt>
      <trkpt lat="47.337445" lon="8.698958">
        <ele>472.009</ele>
        <time>2026-08-14T09:34:57Z</time>
      </trkpt>
      <trkpt lat="47.337284" lon="8.699349">
        <ele>473.023</ele>
        <time>2026-08-14T09:35:02Z</time>
      </trkpt>
      <trkpt lat="47.339682" lon="8.702781">
        <ele>477.078</ele>
        <time>2026-08-14T09:35:51Z</time>
      </trkpt>
      <trkpt lat="47.338471" lon="8.705314">
        <ele>478.070</ele>
        <time>2026-08-14T09:36:23Z</time>
      </trkpt>
      <trkpt lat="47.336922" lon="8.707008">
        <ele>477.048</ele>
        <time>2026-08-14T09:36:49Z</time>
      </trkpt>
      <trkpt lat="47.335481" lon="8.707942">
        <ele>476.055</ele>
        <time>2026-08-14T09:37:09Z</time>
      </trkpt>
      <trkpt lat="47.334186" lon="8.709990">
        <ele>474.068</ele>
        <time>2026-08-14T09:37:32Z</time>
      </trkpt>
      <trkpt lat="47.332502" lon="8.711367">
        <ele>474.045</ele>
        <time>2026-08-14T09:37:57Z</time>
      </trkpt>
      <trkpt lat="47.332100" lon="8.711217">
        <ele>475.046</ele>
        <time>2026-08-14T09:38:04Z</time>
      </trkpt>
      <trkpt lat="47.331587" lon="8.711261">
        <ele>474.093</ele>
        <time>2026-08-14T09:38:11Z</time>
      </trkpt>
      <trkpt lat="47.327317" lon="8.710024">
        <ele>473.029</ele>
        <time>2026-08-14T09:39:08Z</time>
      </trkpt>
      <trkpt lat="47.325623" lon="8.708990">
        <ele>473.000</ele>
        <time>2026-08-14T09:39:31Z</time>
      </trkpt>
      <trkpt lat="47.319342" lon="8.700896">
        <ele>470.020</ele>
        <time>2026-08-14T09:41:14Z</time>
      </trkpt>
      <trkpt lat="47.318559" lon="8.699803">
        <ele>471.009</ele>
        <time>2026-08-14T09:41:30Z</time>
      </trkpt>
      <trkpt lat="47.318472" lon="8.699477">
        <ele>472.044</ele>
        <time>2026-08-14T09:41:35Z</time>
      </trkpt>
      <trkpt lat="47.318165" lon="8.699431">
        <ele>472.069</ele>
        <time>2026-08-14T09:41:41Z</time>
      </trkpt>
      <trkpt lat="47.317543" lon="8.698615">
        <ele>474.011</ele>
        <time>2026-08-14T09:41:55Z</time>
      </trkpt>
      <trkpt lat="47.316521" lon="8.696232">
        <ele>477.049</ele>
        <time>2026-08-14T09:42:27Z</time>
      </trkpt>
      <trkpt lat="47.316269" lon="8.695916">
        <ele>478.076</ele>
        <time>2026-08-14T09:42:34Z</time>
      </trkpt>
      <trkpt lat="47.315706" lon="8.695881">
        <ele>482.069</ele>
        <time>2026-08-14T09:42:47Z</time>
      </trkpt>
      <trkpt lat="47.314673" lon="8.696600">
        <ele>488.066</ele>
        <time>2026-08-14T09:43:13Z</time>
      </trkpt>
      <trkpt lat="47.312617" lon="8.698403">
        <ele>500.087</ele>
        <time>2026-08-14T09:44:09Z</time>
      </trkpt>
      <trkpt lat="47.312444" lon="8.698408">
        <ele>501.094</ele>
        <time>2026-08-14T09:44:14Z</time>
      </trkpt>
      <trkpt lat="47.313095" lon="8.697004">
        <ele>508.053</ele>
        <time>2026-08-14T09:44:45Z</time>
      </trkpt>
      <trkpt lat="47.313564" lon="8.693546">
        <ele>519.004</ele>
        <time>2026-08-14T09:45:40Z</time>
      </trkpt>
      <trkpt lat="47.314590" lon="8.691559">
        <ele>527.014</ele>
        <time>2026-08-14T09:46:22Z</time>
      </trkpt>
      <trkpt lat="47.314641" lon="8.691179">
        <ele>529.009</ele>
        <time>2026-08-14T09:46:29Z</time>
      </trkpt>
      <trkpt lat="47.314303" lon="8.690777">
        <ele>531.027</ele>
        <time>2026-08-14T09:46:40Z</time>
      </trkpt>
      <trkpt lat="47.311306" lon="8.689230">
        <ele>543.082</ele>
        <time>2026-08-14T09:47:47Z</time>
      </trkpt>
      <trkpt lat="47.310523" lon="8.686285">
        <ele>551.034</ele>
        <time>2026-08-14T09:48:33Z</time>
      </trkpt>
      <trkpt lat="47.309542" lon="8.686017">
        <ele>556.072</ele>
        <time>2026-08-14T09:49:02Z</time>
      </trkpt>
      <trkpt lat="47.307476" lon="8.686032">
        <ele>565.049</ele>
        <time>2026-08-14T09:49:57Z</time>
      </trkpt>
      <trkpt lat="47.306656" lon="8.685692">
        <ele>568.092</ele>
        <time>2026-08-14T09:50:18Z</time>
      </trkpt>
      <trkpt lat="47.306389" lon="8.685259">
        <ele>570.059</ele>
        <time>2026-08-14T09:50:29Z</time>
      </trkpt>
      <trkpt lat="47.306375" lon="8.684151">
        <ele>573.060</ele>
        <time>2026-08-14T09:50:49Z</time>
      </trkpt>
      <trkpt lat="47.306115" lon="8.683501">
        <ele>575.017</ele>
        <time>2026-08-14T09:51:03Z</time>
      </trkpt>
      <trkpt lat="47.304808" lon="8.685867">
        <ele>572.087</ele>
        <time>2026-08-14T09:51:35Z</time>
      </trkpt>
      <trkpt lat="47.303154" lon="8.688016">
        <ele>564.042</ele>
        <time>2026-08-14T09:52:09Z</time>
      </trkpt>
      <trkpt lat="47.302873" lon="8.688167">
        <ele>563.026</ele>
        <time>2026-08-14T09:52:35Z</time>
      </trkpt>
      <trkpt lat="47.302579" lon="8.687616">
        <ele>564.009</ele>
        <time>2026-08-14T09:52:47Z</time>
      </trkpt>
      <trkpt lat="47.302973" lon="8.686668">
        <ele>567.050</ele>
        <time>2026-08-14T09:53:05Z</time>
      </trkpt>
      <trkpt lat="47.302819" lon="8.686318">
        <ele>568.015</ele>
        <time>2026-08-14T09:53:13Z</time>
      </trkpt>
      <trkpt lat="47.302221" lon="8.685815">
        <ele>572.087</ele>
        <time>2026-08-14T09:53:33Z</time>
      </trkpt>
      <trkpt lat="47.301905" lon="8.685222">
        <ele>575.065</ele>
        <time>2026-08-14T09:53:49Z</time>
      </trkpt>
      <trkpt lat="47.301671" lon="8.685060">
        <ele>576.032</ele>
        <time>2026-08-14T09:53:57Z</time>
      </trkpt>
      <trkpt lat="47.300537" lon="8.685290">
        <ele>578.095</ele>
        <time>2026-08-14T09:54:28Z</time>
      </trkpt>
      <trkpt lat="47.300695" lon="8.684502">
        <ele>580.012</ele>
        <time>2026-08-14T09:54:50Z</time>
      </trkpt>
      <trkpt lat="47.300433" lon="8.683916">
        <ele>586.023</ele>
        <time>2026-08-14T09:55:10Z</time>
      </trkpt>
      <trkpt lat="47.300766" lon="8.682850">
        <ele>592.060</ele>
        <time>2026-08-14T09:55:43Z</time>
      </trkpt>
      <trkpt lat="47.300620" lon="8.682400">
        <ele>594.057</ele>
        <time>2026-08-14T09:55:55Z</time>
      </trkpt>
      <trkpt lat="47.300365" lon="8.682291">
        <ele>596.000</ele>
        <time>2026-08-14T09:56:05Z</time>
      </trkpt>
      <trkpt lat="47.298890" lon="8.682669">
        <ele>606.020</ele>
        <time>2026-08-14T09:56:55Z</time>
      </trkpt>
      <trkpt lat="47.298309" lon="8.682340">
        <ele>611.009</ele>
        <time>2026-08-14T09:57:17Z</time>
      </trkpt>
      <trkpt lat="47.298297" lon="8.681557">
        <ele>615.077</ele>
        <time>2026-08-14T09:57:36Z</time>
      </trkpt>
      <trkpt lat="47.299147" lon="8.678985">
        <ele>629.042</ele>
        <time>2026-08-14T09:58:46Z</time>
      </trkpt>
      <trkpt lat="47.299108" lon="8.678722">
        <ele>631.024</ele>
        <time>2026-08-14T09:58:54Z</time>
      </trkpt>
      <trkpt lat="47.298886" lon="8.678557">
        <ele>633.072</ele>
        <time>2026-08-14T09:59:04Z</time>
      </trkpt>
      <trkpt lat="47.297744" lon="8.679567">
        <ele>642.039</ele>
        <time>2026-08-14T09:59:50Z</time>
      </trkpt>
      <trkpt lat="47.297094" lon="8.679928">
        <ele>648.022</ele>
        <time>2026-08-14T10:00:13Z</time>
      </trkpt>
      <trkpt lat="47.296588" lon="8.680088">
        <ele>652.079</ele>
        <time>2026-08-14T10:00:29Z</time>
      </trkpt>
      <trkpt lat="47.295920" lon="8.680044">
        <ele>656.020</ele>
        <time>2026-08-14T10:00:50Z</time>
      </trkpt>
      <trkpt lat="47.295495" lon="8.680862">
        <ele>662.037</ele>
        <time>2026-08-14T10:01:17Z</time>
      </trkpt>
      <trkpt lat="47.294369" lon="8.681317">
        <ele>670.084</ele>
        <time>2026-08-14T10:01:53Z</time>
      </trkpt>
      <trkpt lat="47.293646" lon="8.681448">
        <ele>676.007</ele>
        <time>2026-08-14T10:02:18Z</time>
      </trkpt>
      <trkpt lat="47.293194" lon="8.681189">
        <ele>679.017</ele>
        <time>2026-08-14T10:02:35Z</time>
      </trkpt>
      <trkpt lat="47.292299" lon="8.681648">
        <ele>686.009</ele>
        <time>2026-08-14T10:03:08Z</time>
      </trkpt>
      <trkpt lat="47.291742" lon="8.680924">
        <ele>692.050</ele>
        <time>2026-08-14T10:03:34Z</time>
      </trkpt>
      <trkpt lat="47.291238" lon="8.680917">
        <ele>696.035</ele>
        <time>2026-08-14T10:03:51Z</time>
      </trkpt>
      <trkpt lat="47.290111" lon="8.681774">
        <ele>705.037</ele>
        <time>2026-08-14T10:04:33Z</time>
      </trkpt>
      <trkpt lat="47.288815" lon="8.683708">
        <ele>716.065</ele>
        <time>2026-08-14T10:05:26Z</time>
      </trkpt>
      <trkpt lat="47.288496" lon="8.683896">
        <ele>717.082</ele>
        <time>2026-08-14T10:05:34Z</time>
      </trkpt>
      <trkpt lat="47.288097" lon="8.683913">
        <ele>718.045</ele>
        <time>2026-08-14T10:05:41Z</time>
      </trkpt>
      <trkpt lat="47.287325" lon="8.683391">
        <ele>718.012</ele>
        <time>2026-08-14T10:05:55Z</time>
      </trkpt>
      <trkpt lat="47.286929" lon="8.681772">
        <ele>718.083</ele>
        <time>2026-08-14T10:06:13Z</time>
      </trkpt>
      <trkpt lat="47.285849" lon="8.680433">
        <ele>717.050</ele>
        <time>2026-08-14T10:06:36Z</time>
      </trkpt>
      <trkpt lat="47.284886" lon="8.675308">
        <ele>696.047</ele>
        <time>2026-08-14T10:07:11Z</time>
      </trkpt>
      <trkpt lat="47.284584" lon="8.674302">
        <ele>693.029</ele>
        <time>2026-08-14T10:07:18Z</time>
      </trkpt>
      <trkpt lat="47.284561" lon="8.672822">
        <ele>689.021</ele>
        <time>2026-08-14T10:07:28Z</time>
      </trkpt>
      <trkpt lat="47.285671" lon="8.667204">
        <ele>693.009</ele>
        <time>2026-08-14T10:08:31Z</time>
      </trkpt>
      <trkpt lat="47.285464" lon="8.664935">
        <ele>692.026</ele>
        <time>2026-08-14T10:09:56Z</time>
      </trkpt>
      <trkpt lat="47.285543" lon="8.663989">
        <ele>691.051</ele>
        <time>2026-08-14T10:10:45Z</time>
      </trkpt>
      <trkpt lat="47.286156" lon="8.661221">
        <ele>685.023</ele>
        <time>2026-08-14T10:11:09Z</time>
      </trkpt>
      <trkpt lat="47.286312" lon="8.659037">
        <ele>677.041</ele>
        <time>2026-08-14T10:11:23Z</time>
      </trkpt>
      <trkpt lat="47.286153" lon="8.657075">
        <ele>667.068</ele>
        <time>2026-08-14T10:11:35Z</time>
      </trkpt>
      <trkpt lat="47.288146" lon="8.653585">
        <ele>647.061</ele>
        <time>2026-08-14T10:12:02Z</time>
      </trkpt>
      <trkpt lat="47.288340" lon="8.652448">
        <ele>644.058</ele>
        <time>2026-08-14T10:12:10Z</time>
      </trkpt>
      <trkpt lat="47.288866" lon="8.650810">
        <ele>640.069</ele>
        <time>2026-08-14T10:12:22Z</time>
      </trkpt>
      <trkpt lat="47.289587" lon="8.649880">
        <ele>635.046</ele>
        <time>2026-08-14T10:12:31Z</time>
      </trkpt>
      <trkpt lat="47.289513" lon="8.647428">
        <ele>636.044</ele>
        <time>2026-08-14T10:12:53Z</time>
      </trkpt>
      <trkpt lat="47.290561" lon="8.644903">
        <ele>636.005</ele>
        <time>2026-08-14T10:13:21Z</time>
      </trkpt>
      <trkpt lat="47.292940" lon="8.634821">
        <ele>626.015</ele>
        <time>2026-08-14T10:14:48Z</time>
      </trkpt>
      <trkpt lat="47.294075" lon="8.631774">
        <ele>621.009</ele>
        <time>2026-08-14T10:15:13Z</time>
      </trkpt>
      <trkpt lat="47.294184" lon="8.631003">
        <ele>620.046</ele>
        <time>2026-08-14T10:15:23Z</time>
      </trkpt>
      <trkpt lat="47.294578" lon="8.631112">
        <ele>621.091</ele>
        <time>2026-08-14T10:15:34Z</time>
      </trkpt>
      <trkpt lat="47.294703" lon="8.630942">
        <ele>621.043</ele>
        <time>2026-08-14T10:15:37Z</time>
      </trkpt>
      <trkpt lat="47.295376" lon="8.629288">
        <ele>617.021</ele>
        <time>2026-08-14T10:15:54Z</time>
      </trkpt>
      <trkpt lat="47.295476" lon="8.628027">
        <ele>613.098</ele>
        <time>2026-08-14T10:16:03Z</time>
      </trkpt>
      <trkpt lat="47.295722" lon="8.627227">
        <ele>610.071</ele>
        <time>2026-08-14T10:16:09Z</time>
      </trkpt>
      <trkpt lat="47.297468" lon="8.623596">
        <ele>607.028</ele>
        <time>2026-08-14T10:16:47Z</time>
      </trkpt>
      <trkpt lat="47.298395" lon="8.618478">
        <ele>596.049</ele>
        <time>2026-08-14T10:17:30Z</time>
      </trkpt>
      <trkpt lat="47.298905" lon="8.617526">
        <ele>594.036</ele>
        <time>2026-08-14T10:17:42Z</time>
      </trkpt>
      <trkpt lat="47.300693" lon="8.615682">
        <ele>590.049</ele>
        <time>2026-08-14T10:18:09Z</time>
      </trkpt>
      <trkpt lat="47.300950" lon="8.615228">
        <ele>588.002</ele>
        <time>2026-08-14T10:18:13Z</time>
      </trkpt>
      <trkpt lat="47.301236" lon="8.614126">
        <ele>586.022</ele>
        <time>2026-08-14T10:18:23Z</time>
      </trkpt>
      <trkpt lat="47.300573" lon="8.612335">
        <ele>572.009</ele>
        <time>2026-08-14T10:18:39Z</time>
      </trkpt>
      <trkpt lat="47.301560" lon="8.611087">
        <ele>567.086</ele>
        <time>2026-08-14T10:18:56Z</time>
      </trkpt>
      <trkpt lat="47.302746" lon="8.610455">
        <ele>563.011</ele>
        <time>2026-08-14T10:19:18Z</time>
      </trkpt>
      <trkpt lat="47.303600" lon="8.608719">
        <ele>558.063</ele>
        <time>2026-08-14T10:19:38Z</time>
      </trkpt>
      <trkpt lat="47.303746" lon="8.607889">
        <ele>556.031</ele>
        <time>2026-08-14T10:19:47Z</time>
      </trkpt>
      <trkpt lat="47.304275" lon="8.606564">
        <ele>554.048</ele>
        <time>2026-08-14T10:20:01Z</time>
      </trkpt>
      <trkpt lat="47.306060" lon="8.604837">
        <ele>558.051</ele>
        <time>2026-08-14T10:20:36Z</time>
      </trkpt>
      <trkpt lat="47.306017" lon="8.604548">
        <ele>557.088</ele>
        <time>2026-08-14T10:20:40Z</time>
      </trkpt>
      <trkpt lat="47.305433" lon="8.604037">
        <ele>553.049</ele>
        <time>2026-08-14T10:20:50Z</time>
      </trkpt>
      <trkpt lat="47.305509" lon="8.603262">
        <ele>551.066</ele>
        <time>2026-08-14T10:20:59Z</time>
      </trkpt>
      <trkpt lat="47.306265" lon="8.601570">
        <ele>544.023</ele>
        <time>2026-08-14T10:21:20Z</time>
      </trkpt>
      <trkpt lat="47.308275" lon="8.598555">
        <ele>531.083</ele>
        <time>2026-08-14T10:21:51Z</time>
      </trkpt>
      <trkpt lat="47.308693" lon="8.597419">
        <ele>528.011</ele>
        <time>2026-08-14T10:22:01Z</time>
      </trkpt>
      <trkpt lat="47.308713" lon="8.596999">
        <ele>527.009</ele>
        <time>2026-08-14T10:22:05Z</time>
      </trkpt>
      <trkpt lat="47.308448" lon="8.596779">
        <ele>526.074</ele>
        <time>2026-08-14T10:22:09Z</time>
      </trkpt>
      <trkpt lat="47.307827" lon="8.597338">
        <ele>521.039</ele>
        <time>2026-08-14T10:22:17Z</time>
      </trkpt>
      <trkpt lat="47.307177" lon="8.597024">
        <ele>517.051</ele>
        <time>2026-08-14T10:22:26Z</time>
      </trkpt>
      <trkpt lat="47.305697" lon="8.597684">
        <ele>507.059</ele>
        <time>2026-08-14T10:22:43Z</time>
      </trkpt>
      <trkpt lat="47.305405" lon="8.597679">
        <ele>505.016</ele>
        <time>2026-08-14T10:22:47Z</time>
      </trkpt>
      <trkpt lat="47.305291" lon="8.597418">
        <ele>504.099</ele>
        <time>2026-08-14T10:22:50Z</time>
      </trkpt>
      <trkpt lat="47.305376" lon="8.597104">
        <ele>502.036</ele>
        <time>2026-08-14T10:22:53Z</time>
      </trkpt>
      <trkpt lat="47.307330" lon="8.594833">
        <ele>486.097</ele>
        <time>2026-08-14T10:23:20Z</time>
      </trkpt>
      <trkpt lat="47.307831" lon="8.594009">
        <ele>481.044</ele>
        <time>2026-08-14T10:23:29Z</time>
      </trkpt>
      <trkpt lat="47.307870" lon="8.593628">
        <ele>479.036</ele>
        <time>2026-08-14T10:23:34Z</time>
      </trkpt>
      <trkpt lat="47.307634" lon="8.593401">
        <ele>478.017</ele>
        <time>2026-08-14T10:23:39Z</time>
      </trkpt>
      <trkpt lat="47.306855" lon="8.593667">
        <ele>474.018</ele>
        <time>2026-08-14T10:23:49Z</time>
      </trkpt>
      <trkpt lat="47.304765" lon="8.593593">
        <ele>462.009</ele>
        <time>2026-08-14T10:24:12Z</time>
      </trkpt>
      <trkpt lat="47.304543" lon="8.593518">
        <ele>460.065</ele>
        <time>2026-08-14T10:24:16Z</time>
      </trkpt>
      <trkpt lat="47.304469" lon="8.593331">
        <ele>459.010</ele>
        <time>2026-08-14T10:24:21Z</time>
      </trkpt>
      <trkpt lat="47.306403" lon="8.591857">
        <ele>453.012</ele>
        <time>2026-08-14T10:24:55Z</time>
      </trkpt>
      <trkpt lat="47.308947" lon="8.590599">
        <ele>454.030</ele>
        <time>2026-08-14T10:25:33Z</time>
      </trkpt>
      <trkpt lat="47.308932" lon="8.589812">
        <ele>455.037</ele>
        <time>2026-08-14T10:25:42Z</time>
      </trkpt>
      <trkpt lat="47.309703" lon="8.588358">
        <ele>450.060</ele>
        <time>2026-08-14T10:25:59Z</time>
      </trkpt>
      <trkpt lat="47.309636" lon="8.587789">
        <ele>451.097</ele>
        <time>2026-08-14T10:26:06Z</time>
      </trkpt>
      <trkpt lat="47.309943" lon="8.587292">
        <ele>450.088</ele>
        <time>2026-08-14T10:26:13Z</time>
      </trkpt>
      <trkpt lat="47.311450" lon="8.586259">
        <ele>449.085</ele>
        <time>2026-08-14T10:26:40Z</time>
      </trkpt>
      <trkpt lat="47.312914" lon="8.585612">
        <ele>448.081</ele>
        <time>2026-08-14T10:27:03Z</time>
      </trkpt>
      <trkpt lat="47.315755" lon="8.583280">
        <ele>450.061</ele>
        <time>2026-08-14T10:27:51Z</time>
      </trkpt>
      <trkpt lat="47.316028" lon="8.583275">
        <ele>450.017</ele>
        <time>2026-08-14T10:27:56Z</time>
      </trkpt>
      <trkpt lat="47.316351" lon="8.583884">
        <ele>452.009</ele>
        <time>2026-08-14T10:28:07Z</time>
      </trkpt>
      <trkpt lat="47.317043" lon="8.584120">
        <ele>452.070</ele>
        <time>2026-08-14T10:28:21Z</time>
      </trkpt>
      <trkpt lat="47.317736" lon="8.583768">
        <ele>451.085</ele>
        <time>2026-08-14T10:28:35Z</time>
      </trkpt>
      <trkpt lat="47.318674" lon="8.583687">
        <ele>455.097</ele>
        <time>2026-08-14T10:28:59Z</time>
      </trkpt>
      <trkpt lat="47.318360" lon="8.581995">
        <ele>450.015</ele>
        <time>2026-08-14T10:29:34Z</time>
      </trkpt>
      <trkpt lat="47.318437" lon="8.581816">
        <ele>449.022</ele>
        <time>2026-08-14T10:29:37Z</time>
      </trkpt>
      <trkpt lat="47.319625" lon="8.581413">
        <ele>449.055</ele>
        <time>2026-08-14T10:29:55Z</time>
      </trkpt>
      <trkpt lat="47.323779" lon="8.579393">
        <ele>450.062</ele>
        <time>2026-08-14T10:30:59Z</time>
      </trkpt>
      <trkpt lat="47.326446" lon="8.577667">
        <ele>452.033</ele>
        <time>2026-08-14T10:31:43Z</time>
      </trkpt>
      <trkpt lat="47.328534" lon="8.575586">
        <ele>455.060</ele>
        <time>2026-08-14T10:32:24Z</time>
      </trkpt>
      <trkpt lat="47.332548" lon="8.573343">
        <ele>455.065</ele>
        <time>2026-08-14T10:33:31Z</time>
      </trkpt>
      <trkpt lat="47.337806" lon="8.569826">
        <ele>448.068</ele>
        <time>2026-08-14T10:34:55Z</time>
      </trkpt>
      <trkpt lat="47.339396" lon="8.568528">
        <ele>442.014</ele>
        <time>2026-08-14T10:35:14Z</time>
      </trkpt>
      <trkpt lat="47.340856" lon="8.568231">
        <ele>443.009</ele>
        <time>2026-08-14T10:35:33Z</time>
      </trkpt>
      <trkpt lat="47.342731" lon="8.568318">
        <ele>446.078</ele>
        <time>2026-08-14T10:35:59Z</time>
      </trkpt>
      <trkpt lat="47.343648" lon="8.567951">
        <ele>447.013</ele>
        <time>2026-08-14T10:36:14Z</time>
      </trkpt>
      <trkpt lat="47.346668" lon="8.564999">
        <ele>439.015</ele>
        <time>2026-08-14T10:36:58Z</time>
      </trkpt>
      <trkpt lat="47.347573" lon="8.564407">
        <ele>438.053</ele>
        <time>2026-08-14T10:37:09Z</time>
      </trkpt>
      <trkpt lat="47.351855" lon="8.560423">
        <ele>438.030</ele>
        <time>2026-08-14T10:38:13Z</time>
      </trkpt>
      <trkpt lat="47.352063" lon="8.560807">
        <ele>441.013</ele>
        <time>2026-08-14T10:38:27Z</time>
      </trkpt>
      <trkpt lat="47.352550" lon="8.560404">
        <ele>444.010</ele>
        <time>2026-08-14T10:38:43Z</time>
      </trkpt>
      <trkpt lat="47.354169" lon="8.560458">
        <ele>450.091</ele>
        <time>2026-08-14T10:39:19Z</time>
      </trkpt>
      <trkpt lat="47.354449" lon="8.560653">
        <ele>452.078</ele>
        <time>2026-08-14T10:39:29Z</time>
      </trkpt>
      <trkpt lat="47.355498" lon="8.559585">
        <ele>449.059</ele>
        <time>2026-08-14T10:39:47Z</time>
      </trkpt>
      <trkpt lat="47.359304" lon="8.556668">
        <ele>447.003</ele>
        <time>2026-08-14T10:40:46Z</time>
      </trkpt>
      <trkpt lat="47.359682" lon="8.556081">
        <ele>448.023</ele>
        <time>2026-08-14T10:40:54Z</time>
      </trkpt>
      <trkpt lat="47.361434" lon="8.554554">
        <ele>446.009</ele>
        <time>2026-08-14T10:41:20Z</time>
      </trkpt>
      <trkpt lat="47.362566" lon="8.553332">
        <ele>445.037</ele>
        <time>2026-08-14T10:41:37Z</time>
      </trkpt>
      <trkpt lat="47.365132" lon="8.550065">
        <ele>442.022</ele>
        <time>2026-08-14T10:42:23Z</time>
      </trkpt>
      <trkpt lat="47.366072" lon="8.549103">
        <ele>442.034</ele>
        <time>2026-08-14T10:42:48Z</time>
      </trkpt>
      <trkpt lat="47.366558" lon="8.547762">
        <ele>439.062</ele>
        <time>2026-08-14T10:43:19Z</time>
      </trkpt>
      <trkpt lat="47.367913" lon="8.546163">
        <ele>441.099</ele>
        <time>2026-08-14T10:43:55Z</time>
      </trkpt>
      <trkpt lat="47.367582" lon="8.545178">
        <ele>438.092</ele>
        <time>2026-08-14T10:44:10Z</time>
      </trkpt>
      <trkpt lat="47.369150" lon="8.543559">
        <ele>437.069</ele>
        <time>2026-08-14T10:44:41Z</time>
      </trkpt>
      <trkpt lat="47.369706" lon="8.543527">
        <ele>437.020</ele>
        <time>2026-08-14T10:44:48Z</time>
      </trkpt>
      <trkpt lat="47.370745" lon="8.543064">
        <ele>438.087</ele>
        <time>2026-08-14T10:45:03Z</time>
      </trkpt>
      <trkpt lat="47.372121" lon="8.542820">
        <ele>437.063</ele>
        <time>2026-08-14T10:45:21Z</time>
      </trkpt>
      <trkpt lat="47.373361" lon="8.542810">
        <ele>436.044</ele>
        <time>2026-08-14T10:45:37Z</time>
      </trkpt>
      <trkpt lat="47.374339" lon="8.542986">
        <ele>437.018</ele>
        <time>2026-08-14T10:46:18Z</time>
      </trkpt>
      <trkpt lat="47.374571" lon="8.541790">
        <ele>437.009</ele>
        <time>2026-08-14T10:46:36Z</time>
      </trkpt>
      <trkpt lat="47.375763" lon="8.542002">
        <ele>437.028</ele>
        <time>2026-08-14T10:46:53Z</time>
      </trkpt>
      <trkpt lat="47.377072" lon="8.541678">
        <ele>435.063</ele>
        <time>2026-08-14T10:47:08Z</time>
      </trkpt>
      <trkpt lat="47.377520" lon="8.541869">
        <ele>432.035</ele>
        <time>2026-08-14T10:47:13Z</time>
      </trkpt>
      <trkpt lat="47.378019" lon="8.541862">
        <ele>437.033</ele>
        <time>2026-08-14T10:47:31Z</time>
      </trkpt>
      <trkpt lat="47.379654" lon="8.541111">
        <ele>435.060</ele>
        <time>2026-08-14T10:47:59Z</time>
      </trkpt>
      <trkpt lat="47.381380" lon="8.539829">
        <ele>434.033</ele>
        <time>2026-08-14T10:48:34Z</time>
      </trkpt>
      <trkpt lat="47.382036" lon="8.539180">
        <ele>434.080</ele>
        <time>2026-08-14T10:48:49Z</time>
      </trkpt>
      <trkpt lat="47.381876" lon="8.538028">
        <ele>436.091</ele>
        <time>2026-08-14T10:49:10Z</time>
      </trkpt>
      <trkpt lat="47.382529" lon="8.537593">
        <ele>435.038</ele>
        <time>2026-08-14T10:49:26Z</time>
      </trkpt>
      <trkpt lat="47.381999" lon="8.536641">
        <ele>435.081</ele>
        <time>2026-08-14T10:49:43Z</time>
      </trkpt>
      <trkpt lat="47.384641" lon="8.533055">
        <ele>433.061</ele>
        <time>2026-08-14T10:50:33Z</time>
      </trkpt>
      <trkpt lat="47.384660" lon="8.532847">
        <ele>433.017</ele>
        <time>2026-08-14T10:50:35Z</time>
      </trkpt>
      <trkpt lat="47.384296" lon="8.532160">
        <ele>434.009</ele>
        <time>2026-08-14T10:50:45Z</time>
      </trkpt>
      <trkpt lat="47.384823" lon="8.531782">
        <ele>434.070</ele>
        <time>2026-08-14T10:51:03Z</time>
      </trkpt>
      <trkpt lat="47.385028" lon="8.531251">
        <ele>434.085</ele>
        <time>2026-08-14T10:51:12Z</time>
      </trkpt>
      <trkpt lat="47.387083" lon="8.528437">
        <ele>432.077</ele>
        <time>2026-08-14T10:52:18Z</time>
      </trkpt>
      <trkpt lat="47.387733" lon="8.527186">
        <ele>432.035</ele>
        <time>2026-08-14T10:52:36Z</time>
      </trkpt>
      <trkpt lat="47.387049" lon="8.527000">
        <ele>432.062</ele>
        <time>2026-08-14T10:52:51Z</time>
      </trkpt>
      <trkpt lat="47.386964" lon="8.527552">
        <ele>432.035</ele>
        <time>2026-08-14T10:53:05Z</time>
      </trkpt>
      <trkpt lat="47.387101" lon="8.527741">
        <ele>433.012</ele>
        <time>2026-08-14T10:53:13Z</time>
      </trkpt>
      <trkpt lat="47.387073" lon="8.527527">
        <ele>432.073</ele>
        <time>2026-08-14T10:53:19Z</time>
      </trkpt>
    </trkseg>
  </trk></gpx>